[{"OBJECT_NAME":"STARLINK-6270","OBJECT_ID":"2023-061AZ","EPOCH":"2026-03-09T07:37:22.125216","MEAN_MOTION":15.02532108,"ECCENTRICITY":0.00013254,"INCLINATION":43.0045,"RA_OF_ASC_NODE":173.9129,"ARG_OF_PERICENTER":267.6382,"MEAN_ANOMALY":92.4309,"EPHEMERIS_TYPE":0,"CLASSIFICATION_TYPE":"U","NORAD_CAT_ID":56421,"ELEMENT_SET_NO":999,"REV_AT_EPOCH":15699,"BSTAR":-1.3581322e-5,"MEAN_MOTION_DOT":-3.87e-6,"MEAN_MOTION_DDOT":0},{"OBJECT_NAME":"COSMOS 2098","OBJECT_ID":"1990-078A","EPOCH":"2026-03-09T22:39:16.522272","MEAN_MOTION":13.89477842,"ECCENTRICITY":0.07475619,"INCLINATION":82.9419,"RA_OF_ASC_NODE":157.1361,"ARG_OF_PERICENTER":147.44,"MEAN_ANOMALY":217.5252,"EPHEMERIS_TYPE":0,"CLASSIFICATION_TYPE":"U","NORAD_CAT_ID":20774,"ELEMENT_SET_NO":999,"REV_AT_EPOCH":75873,"BSTAR":0.00051972754,"MEAN_MOTION_DOT":7.386e-5,"MEAN_MOTION_DDOT":0}]
